ISS OBJECT XX           
1 66911U 98067XX  26069.40427306  .00327969  00000+0  20071-2 0  9999
2 66911  51.6205  60.3911 0006886  88.8757 271.3031 15.75795893 15300
ISS OBJECT XY           
1 66912U 98067XY  26069.98750332  .00107127  00000+0  11051-2 0  9991
2 66912  51.6270  60.5710 0003215  94.9911 265.1451 15.63960594 15356
KNACKSAT-2              
1 67683U 98067XZ  26069.50037502  .00044028  00000+0  72346-3 0  9997
2 67683  51.6310  67.8211 0009378 188.4486 171.6348 15.51899743  4915
GXIBA-1                 
1 67684U 98067YA  26069.40751467  .00095739  00000+0  14160-2 0  9994
2 67684  51.6304  67.9518 0011131 178.2163 181.8869 15.54450366  4906
CORAL                   
1 67685U 98067YB  26069.62450905  .00048969  00000+0  79168-3 0  9995
2 67685  51.6307  67.1509 0011379 185.5348 174.5518 15.52282443  4932
ISS OBJECT YC           
1 67686U 98067YC  26069.23252159  .00063974  00000+0  10125-2 0  9994
2 67686  51.6310  69.0348 0007963 152.0771 208.0648 15.52794890  4876
LEOPARD                 
1 67687U 98067YD  26069.56233049  .00045275  00000+0  73904-3 0  9997
2 67687  51.6319  67.4868 0007913 156.8932 203.2416 15.52085814  4847
ISS OBJECT YE           
1 67688U 98067YE  26069.94313510  .00057776  00000+0  92174-3 0  9991
2 67688  51.6309  65.5308 0007887 155.3272 204.8096 15.52618028  4903
CREW DRAGON 12          
1 67796U 26031A   26069.48132270  .00008982  00000+0  17350-3 0  9992
2 67796  51.6323  68.4424 0007950 177.3713 182.7319 15.48562437556344
