CCSDS_OMM_VERS = 2.0
CREATION_DATE  = 
ORIGINATOR     = 

OBJECT_NAME    = ISS OBJECT XX
OBJECT_ID      = 1998-067XX
CENTER_NAME    = EARTH
REF_FRAME      = TEME
TIME_SYSTEM    = UTC
MEAN_ELEMENT_THEORY = SGP/SGP4

EPOCH          = 2026-03-10T09:42:09.192384
MEAN_MOTION    = 15.75795893
ECCENTRICITY   = .00068869
INCLINATION    = 51.6205
RA_OF_ASC_NODE = 60.3911
ARG_OF_PERICENTER = 88.8757
MEAN_ANOMALY   = 271.3031

EPHEMERIS_TYPE = 0
CLASSIFICATION_TYPE = U
NORAD_CAT_ID   = 66911
ELEMENT_SET_NO = 999
REV_AT_EPOCH   = 1530
BSTAR          = .2007137E-2
MEAN_MOTION_DOT = .327969E-2
MEAN_MOTION_DDOT = 0

CCSDS_OMM_VERS = 2.0
CREATION_DATE  = 
ORIGINATOR     = 

OBJECT_NAME    = ISS OBJECT XY
OBJECT_ID      = 1998-067XY
CENTER_NAME    = EARTH
REF_FRAME      = TEME
TIME_SYSTEM    = UTC
MEAN_ELEMENT_THEORY = SGP/SGP4

EPOCH          = 2026-03-10T23:42:00.286848
MEAN_MOTION    = 15.63960594
ECCENTRICITY   = .0003215
INCLINATION    = 51.6270
RA_OF_ASC_NODE = 60.5710
ARG_OF_PERICENTER = 94.9911
MEAN_ANOMALY   = 265.1451

EPHEMERIS_TYPE = 0
CLASSIFICATION_TYPE = U
NORAD_CAT_ID   = 66912
ELEMENT_SET_NO = 999
REV_AT_EPOCH   = 1535
BSTAR          = .11051287E-2
MEAN_MOTION_DOT = .107127E-2
MEAN_MOTION_DDOT = 0

CCSDS_OMM_VERS = 2.0
CREATION_DATE  = 
ORIGINATOR     = 

OBJECT_NAME    = KNACKSAT-2
OBJECT_ID      = 1998-067XZ
CENTER_NAME    = EARTH
REF_FRAME      = TEME
TIME_SYSTEM    = UTC
MEAN_ELEMENT_THEORY = SGP/SGP4

EPOCH          = 2026-03-10T12:00:32.401728
MEAN_MOTION    = 15.51899743
ECCENTRICITY   = .00093783
INCLINATION    = 51.6310
RA_OF_ASC_NODE = 67.8211
ARG_OF_PERICENTER = 188.4486
MEAN_ANOMALY   = 171.6348

EPHEMERIS_TYPE = 0
CLASSIFICATION_TYPE = U
NORAD_CAT_ID   = 67683
ELEMENT_SET_NO = 999
REV_AT_EPOCH   = 491
BSTAR          = .72345916E-3
MEAN_MOTION_DOT = .44028E-3
MEAN_MOTION_DDOT = 0

CCSDS_OMM_VERS = 2.0
CREATION_DATE  = 
ORIGINATOR     = 

OBJECT_NAME    = GXIBA-1
OBJECT_ID      = 1998-067YA
CENTER_NAME    = EARTH
REF_FRAME      = TEME
TIME_SYSTEM    = UTC
MEAN_ELEMENT_THEORY = SGP/SGP4

EPOCH          = 2026-03-10T09:46:49.267488
MEAN_MOTION    = 15.54450366
ECCENTRICITY   = .00111319
INCLINATION    = 51.6304
RA_OF_ASC_NODE = 67.9518
ARG_OF_PERICENTER = 178.2163
MEAN_ANOMALY   = 181.8869

EPHEMERIS_TYPE = 0
CLASSIFICATION_TYPE = U
NORAD_CAT_ID   = 67684
ELEMENT_SET_NO = 999
REV_AT_EPOCH   = 490
BSTAR          = .14159964E-2
MEAN_MOTION_DOT = .95739E-3
MEAN_MOTION_DDOT = 0

CCSDS_OMM_VERS = 2.0
CREATION_DATE  = 
ORIGINATOR     = 

OBJECT_NAME    = CORAL
OBJECT_ID      = 1998-067YB
CENTER_NAME    = EARTH
REF_FRAME      = TEME
TIME_SYSTEM    = UTC
MEAN_ELEMENT_THEORY = SGP/SGP4

EPOCH          = 2026-03-10T14:59:17.581920
MEAN_MOTION    = 15.52282443
ECCENTRICITY   = .00113799
INCLINATION    = 51.6307
RA_OF_ASC_NODE = 67.1509
ARG_OF_PERICENTER = 185.5348
MEAN_ANOMALY   = 174.5518

EPHEMERIS_TYPE = 0
CLASSIFICATION_TYPE = U
NORAD_CAT_ID   = 67685
ELEMENT_SET_NO = 999
REV_AT_EPOCH   = 493
BSTAR          = .79168005E-3
MEAN_MOTION_DOT = .48969E-3
MEAN_MOTION_DDOT = 0

CCSDS_OMM_VERS = 2.0
CREATION_DATE  = 
ORIGINATOR     = 

OBJECT_NAME    = ISS OBJECT YC
OBJECT_ID      = 1998-067YC
CENTER_NAME    = EARTH
REF_FRAME      = TEME
TIME_SYSTEM    = UTC
MEAN_ELEMENT_THEORY = SGP/SGP4

EPOCH          = 2026-03-10T05:34:49.865376
MEAN_MOTION    = 15.52794890
ECCENTRICITY   = .0007963
INCLINATION    = 51.6310
RA_OF_ASC_NODE = 69.0348
ARG_OF_PERICENTER = 152.0771
MEAN_ANOMALY   = 208.0648

EPHEMERIS_TYPE = 0
CLASSIFICATION_TYPE = U
NORAD_CAT_ID   = 67686
ELEMENT_SET_NO = 999
REV_AT_EPOCH   = 487
BSTAR          = .10125E-2
MEAN_MOTION_DOT = .63974E-3
MEAN_MOTION_DDOT = 0

CCSDS_OMM_VERS = 2.0
CREATION_DATE  = 
ORIGINATOR     = 

OBJECT_NAME    = LEOPARD
OBJECT_ID      = 1998-067YD
CENTER_NAME    = EARTH
REF_FRAME      = TEME
TIME_SYSTEM    = UTC
MEAN_ELEMENT_THEORY = SGP/SGP4

EPOCH          = 2026-03-10T13:29:45.354336
MEAN_MOTION    = 15.52085814
ECCENTRICITY   = .00079134
INCLINATION    = 51.6319
RA_OF_ASC_NODE = 67.4868
ARG_OF_PERICENTER = 156.8932
MEAN_ANOMALY   = 203.2416

EPHEMERIS_TYPE = 0
CLASSIFICATION_TYPE = U
NORAD_CAT_ID   = 67687
ELEMENT_SET_NO = 999
REV_AT_EPOCH   = 484
BSTAR          = .73904401E-3
MEAN_MOTION_DOT = .45275E-3
MEAN_MOTION_DDOT = 0

CCSDS_OMM_VERS = 2.0
CREATION_DATE  = 
ORIGINATOR     = 

OBJECT_NAME    = ISS OBJECT YE
OBJECT_ID      = 1998-067YE
CENTER_NAME    = EARTH
REF_FRAME      = TEME
TIME_SYSTEM    = UTC
MEAN_ELEMENT_THEORY = SGP/SGP4

EPOCH          = 2026-03-10T22:38:06.872640
MEAN_MOTION    = 15.52618028
ECCENTRICITY   = .00078871
INCLINATION    = 51.6309
RA_OF_ASC_NODE = 65.5308
ARG_OF_PERICENTER = 155.3272
MEAN_ANOMALY   = 204.8096

EPHEMERIS_TYPE = 0
CLASSIFICATION_TYPE = U
NORAD_CAT_ID   = 67688
ELEMENT_SET_NO = 999
REV_AT_EPOCH   = 490
BSTAR          = .92173963E-3
MEAN_MOTION_DOT = .57776E-3
MEAN_MOTION_DDOT = 0

CCSDS_OMM_VERS = 2.0
CREATION_DATE  = 
ORIGINATOR     = 

OBJECT_NAME    = CREW DRAGON 12
OBJECT_ID      = 2026-031A
CENTER_NAME    = EARTH
REF_FRAME      = TEME
TIME_SYSTEM    = UTC
MEAN_ELEMENT_THEORY = SGP/SGP4

EPOCH          = 2026-03-10T11:33:06.281280
MEAN_MOTION    = 15.48562437
ECCENTRICITY   = .00079508
INCLINATION    = 51.6323
RA_OF_ASC_NODE = 68.4424
ARG_OF_PERICENTER = 177.3713
MEAN_ANOMALY   = 182.7319

EPHEMERIS_TYPE = 0
CLASSIFICATION_TYPE = U
NORAD_CAT_ID   = 67796
ELEMENT_SET_NO = 999
REV_AT_EPOCH   = 55634
BSTAR          = .17350063E-3
MEAN_MOTION_DOT = .8982E-4
MEAN_MOTION_DDOT = 0

